ORBCOMM-X               
1 21576U 91050C   25213.64790254  .00000306  00000+0  10367-3 0  9994
2 21576  98.3407 279.3162 0004600  60.8434 299.3217 14.43290865788670
ORBCOMM FM01            
1 23545U 95017A   25213.70781677  .00006627  00000+0  68558-3 0  9992
2 23545  69.9647 320.5901 0005660 257.5518 102.5003 14.90499851619290
ORBCOMM FM02            
1 23546U 95017B   25213.75725188  .00009517  00000+0  95739-3 0  9995
2 23546  69.9663 339.7058 0006952 254.3661 105.6727 14.91445357618955
ORBCOMM FM08            
1 25112U 97084A   25213.29993127  .00001662  00000+0  50321-3 0  9992
2 25112  45.0133 151.2858 0004686 103.8307 256.3066 14.45919649447909
ORBCOMM FM10            
1 25113U 97084B   25213.84053702  .00001495  00000+0  45883-3 0  9991
2 25113  45.0146 151.1508 0004211  59.9142 300.2127 14.45703803623127
ORBCOMM FM11            
1 25114U 97084C   25213.36919709  .00001470  00000+0  45407-3 0  9992
2 25114  45.0130 154.1280 0004907  62.6053 297.5297 14.45450420448018
ORBCOMM FM12            
1 25115U 97084D   25213.88392862  .00001377  00000+0  42771-3 0  9992
2 25115  45.0138 151.4036 0004090  57.5559 302.5687 14.45474599447880
ORBCOMM FM09            
1 25116U 97084E   25213.85108663  .00001440  00000+0  44649-3 0  9991
2 25116  45.0141 152.5398 0005637  53.0180 307.1187 14.45348575448080
